[
  {
    "name": "ONEWEB-0277",
    "noradId": "48995",
    "line1": "1 48995U 21060AE  26192.59438079 -.00000030  00000+0 -11133-3 0  9995",
    "line2": "2 48995  87.9073 223.9349 0002168  99.9750 260.1626 13.16594405242772"
  },
  {
    "name": "ONEWEB-0278",
    "noradId": "48996",
    "line1": "1 48996U 21060AF  26192.58487536 -.00000001  00000+0 -36309-4 0  9998",
    "line2": "2 48996  87.9078 223.9287 0002309  91.2173 268.9223 13.16593572242908"
  },
  {
    "name": "ONEWEB-0279",
    "noradId": "48997",
    "line1": "1 48997U 21060AG  26192.59279041  .00000106  00000+0  24274-3 0  9991",
    "line2": "2 48997  87.9074 223.9250 0001884 101.4570 258.6772 13.16593909242838"
  },
  {
    "name": "ONEWEB-0280",
    "noradId": "48998",
    "line1": "1 48998U 21060AH  26192.60782898 -.00000007  00000+0 -51451-4 0  9993",
    "line2": "2 48998  87.9083 223.9261 0002492  98.4129 261.7284 13.16594141242777"
  },
  {
    "name": "ONEWEB-0281",
    "noradId": "48999",
    "line1": "1 48999U 21060AJ  26192.61337000  .00000183  00000+0  44559-3 0  9999",
    "line2": "2 48999  87.9070 223.9212 0002002  87.8866 272.2494 13.16594252242848"
  },
  {
    "name": "ONEWEB-0282",
    "noradId": "49000",
    "line1": "1 49000U 21060AK  26192.56745566  .00000061  00000+0  12535-3 0  9991",
    "line2": "2 49000  87.9075 223.9371 0002089  96.3357 263.8012 13.16595119242810"
  },
  {
    "name": "ONEWEB-0283",
    "noradId": "49001",
    "line1": "1 49001U 21060AL  26192.63236512 -.00000072  00000+0 -22173-3 0  9999",
    "line2": "2 49001  87.9074 223.9244 0002012  97.9916 262.1444 13.16593315242832"
  },
  {
    "name": "ONEWEB-0284",
    "noradId": "49002",
    "line1": "1 49002U 21060AM  26192.62604237  .00000084  00000+0  18529-3 0  9993",
    "line2": "2 49002  87.9083 223.9186 0002394  92.4296 267.7109 13.16593736242816"
  },
  {
    "name": "ONEWEB-0285",
    "noradId": "49075",
    "line1": "1 49075U 21075A   26192.83735826 -.00001056  00000+0 -29709-2 0  9994",
    "line2": "2 49075  87.8970 345.7590 0001253  82.2776 277.8495 13.12438263238448"
  },
  {
    "name": "ONEWEB-0286",
    "noradId": "49076",
    "line1": "1 49076U 21075B   26192.81942465  .00000037  00000+0  67149-4 0  9990",
    "line2": "2 49076  87.8961 345.7788 0001775  89.5201 270.6131 13.12441604237798"
  },
  {
    "name": "ONEWEB-0287",
    "noradId": "49077",
    "line1": "1 49077U 21075C   26192.84590285  .00000137  00000+0  32069-3 0  9996",
    "line2": "2 49077  87.9128   0.9601 0001776  75.6634 284.4695 13.17648159236871"
  },
  {
    "name": "ONEWEB-0288",
    "noradId": "49078",
    "line1": "1 49078U 21075D   26192.79584311  .00000601  00000+0  16356-2 0  9990",
    "line2": "2 49078  87.8959 345.7620 0001627  89.6895 270.4420 13.12442903238410"
  },
  {
    "name": "ONEWEB-0289",
    "noradId": "49079",
    "line1": "1 49079U 21075E   26192.50503361  .00002542  00000+0  65142-2 0  9999",
    "line2": "2 49079  87.9147   1.0440 0002470 101.1516 258.9893 13.17630413237403"
  },
  {
    "name": "ONEWEB-0290",
    "noradId": "49080",
    "line1": "1 49080U 21075F   26192.85771987  .00000099  00000+0  22209-3 0  9993",
    "line2": "2 49080  87.9144   0.9489 0002220  95.8525 264.2860 13.17651238236866"
  },
  {
    "name": "ONEWEB-0291",
    "noradId": "49081",
    "line1": "1 49081U 21075G   26192.84254169  .00000098  00000+0  21925-3 0  9994",
    "line2": "2 49081  87.9123   0.9575 0001908  80.7501 279.3846 13.17646774236858"
  },
  {
    "name": "ONEWEB-0293",
    "noradId": "49082",
    "line1": "1 49082U 21075H   26192.86784081  .00000006  00000+0 -18609-4 0  9994",
    "line2": "2 49082  87.9148   0.9562 0002085  93.1638 266.9732 13.17650017236882"
  },
  {
    "name": "ONEWEB-0294",
    "noradId": "49083",
    "line1": "1 49083U 21075J   26192.80262498  .00000425  00000+0  11464-2 0  9996",
    "line2": "2 49083  87.8967 345.7647 0002174  98.3432 261.7943 13.12442548237806"
  },
  {
    "name": "ONEWEB-0295",
    "noradId": "49084",
    "line1": "1 49084U 21075K   26192.86700360  .00000026  00000+0  32966-4 0  9997",
    "line2": "2 49084  87.9138   0.9589 0002015  83.8122 276.3239 13.17649794236842"
  },
  {
    "name": "ONEWEB-0296",
    "noradId": "49085",
    "line1": "1 49085U 21075L   26192.85852777  .00000168  00000+0  43215-3 0  9992",
    "line2": "2 49085  87.8959 345.7618 0001933  86.7642 273.3708 13.12444809237814"
  },
  {
    "name": "ONEWEB-0297",
    "noradId": "49086",
    "line1": "1 49086U 21075M   26192.81278499  .00000240  00000+0  63246-3 0  9999",
    "line2": "2 49086  87.8957 345.7779 0002187  93.7387 266.3991 13.12441737238417"
  },
  {
    "name": "ONEWEB-0298",
    "noradId": "49087",
    "line1": "1 49087U 21075N   26192.49169541  .00000015  00000+0  56759-5 0  9994",
    "line2": "2 49087  87.9129   1.0310 0001509  86.1075 274.0229 13.17648838236829"
  },
  {
    "name": "ONEWEB-0299",
    "noradId": "49088",
    "line1": "1 49088U 21075P   26192.49322477  .00000013  00000+0  25233-6 0  9996",
    "line2": "2 49088  87.9153   1.0142 0001893  86.0037 274.1311 13.17647928236803"
  },
  {
    "name": "ONEWEB-0300",
    "noradId": "49089",
    "line1": "1 49089U 21075Q   26192.80516391  .00000453  00000+0  12252-2 0  9993",
    "line2": "2 49089  87.8967 345.7624 0001461  91.8207 268.3089 13.12441848238439"
  },
  {
    "name": "ONEWEB-0301",
    "noradId": "49090",
    "line1": "1 49090U 21075R   26192.86530384  .00000268  00000+0  71033-3 0  9996",
    "line2": "2 49090  87.8974 345.7475 0001587  96.0760 264.0550 13.12443537237806"
  },
  {
    "name": "ONEWEB-0302",
    "noradId": "49091",
    "line1": "1 49091U 21075S   26192.85174843 -.00000136  00000+0 -41360-3 0  9996",
    "line2": "2 49091  87.8954 345.7628 0002080  95.0655 265.0711 13.12443113237783"
  },
  {
    "name": "ONEWEB-0304",
    "noradId": "49092",
    "line1": "1 49092U 21075T   26192.84759169  .00000043  00000+0  77746-4 0  9999",
    "line2": "2 49092  87.9112   0.9630 0001642  85.7253 274.4067 13.17646866236824"
  },
  {
    "name": "ONEWEB-0305",
    "noradId": "49093",
    "line1": "1 49093U 21075U   26192.84084213 -.00000008  00000+0 -53580-4 0  9994",
    "line2": "2 49093  87.9147   0.9514 0001998  80.0158 280.1199 13.17647981236852"
  },
  {
    "name": "ONEWEB-0308",
    "noradId": "49094",
    "line1": "1 49094U 21075V   26192.84496441  .00000063  00000+0  14015-3 0  9993",
    "line2": "2 49094  87.8949 345.7546 0001547  92.7343 267.3963 13.12442989237799"
  },
  {
    "name": "ONEWEB-0309",
    "noradId": "49095",
    "line1": "1 49095U 21075W   26192.84421735  .00000034  00000+0  53280-4 0  9994",
    "line2": "2 49095  87.9134   0.9576 0002276  92.6252 267.5140 13.17650507236822"
  },
  {
    "name": "ONEWEB-0310",
    "noradId": "49096",
    "line1": "1 49096U 21075X   26192.86021913  .00000181  00000+0  46884-3 0  9995",
    "line2": "2 49096  87.8952 345.7728 0001786  96.5145 263.6187 13.12444185238422"
  },
  {
    "name": "ONEWEB-0311",
    "noradId": "49097",
    "line1": "1 49097U 21075Y   26192.85096714  .00000029  00000+0  41307-4 0  9993",
    "line2": "2 49097  87.9153   0.9572 0001879  75.7567 284.3773 13.17648362236870"
  }
]